LEMUR-2-GREENBERG       
1 42837U 17042N   26068.46200528  .00019778  00000+0  72539-3 0  9997
2 42837  97.3781 249.8007 0009157   4.0119 356.1192 15.27971352473146
STARLINK-2424           
1 47834U 21018AZ  26068.72493993  .00003758  00000+0  13895-3 0  9997
2 47834  53.1586 244.8681 0001251  87.0347 273.0797 15.30202261276751
